H1 CPF 01  gfz 2022 04 24 00  6141 tandemx   
H2 1003001  6202 36605    2022 04 24 00 59 42 2022 04 29 00 00 42   120 1 1  0 0 0
H9
10 0 59697   5742.000000  0    1375193.089   4726130.385   4809569.427
10 0 59697   5862.000000  0    1742404.825   5225411.439   4127522.804
10 0 59697   5982.000000  0    2087044.794   5627124.276   3372814.008
10 0 59697   6102.000000  0    2401315.433   5924686.699   2558716.158
10 0 59697   6222.000000  0    2677855.036   6113482.090   1699560.355
10 0 59697   6342.000000  0    2909905.987   6190936.320    810477.904
10 0 59697   6462.000000  0    3091471.018   6156553.058    -92873.428
10 0 59697   6582.000000  0    3217456.059   6011908.080   -994592.917
10 0 59697   6702.000000  0    3283795.691   5760601.392  -1878825.171
10 0 59697   6822.000000  0    3287557.510   5408169.601  -2730046.275
10 0 59697   6942.000000  0    3227023.242   4961959.862  -3533342.687
10 0 59697   7062.000000  0    3101743.495   4430968.511  -4274675.297
10 0 59697   7182.000000  0    2912566.279   3825651.262  -4941122.972
10 0 59697   7302.000000  0    2661638.806   3157709.439  -5521102.891
10 0 59697   7422.000000  0    2352384.182   2439857.036  -6004563.701
10 0 59697   7542.000000  0    1989452.482   1685574.198  -6383149.298
10 0 59697   7662.000000  0    1578648.497    908852.848  -6650330.964
10 0 59697   7782.000000  0    1126838.756    123939.626  -6801509.077
10 0 59697   7902.000000  0     641836.747   -654920.962  -6834084.918
10 0 59697   8022.000000  0     132269.058  -1413739.809  -6747499.090
10 0 59697   8142.000000  0    -392573.882  -2139027.040  -6543238.945
10 0 59697   8262.000000  0    -922902.503  -2818025.762  -6224817.439
10 0 59697   8382.000000  0   -1448606.366  -3438933.942  -5797719.216
10 0 59697   8502.000000  0   -1959441.915  -3991108.200  -5269315.454
10 0 59697   8622.000000  0   -2445228.615  -4465249.148  -4648749.103
10 0 59697   8742.000000  0   -2896050.725  -4853564.647  -3946787.977
10 0 59697   8862.000000  0   -3302459.401  -5149905.465  -3175647.035
10 0 59697   8982.000000  0   -3655671.081  -5349871.433  -2348783.260
10 0 59697   9102.000000  0   -3947758.533  -5450885.298  -1480664.791
10 0 59697   9222.000000  0   -4171829.137  -5452231.416   -586517.458
10 0 59697   9342.000000  0   -4322185.123  -5355057.559    317946.467
10 0 59697   9462.000000  0   -4394461.631  -5162339.135   1216811.419
10 0 59697   9582.000000  0   -4385738.825  -4878805.783   2094247.989
10 0 59697   9702.000000  0   -4294624.160  -4510831.640   2934800.907
10 0 59697   9822.000000  0   -4121303.629  -4066293.411   3723668.792
10 0 59697   9942.000000  0   -3867560.843  -3554399.876   4446970.891
10 0 59697  10062.000000  0   -3536762.642  -2985496.096   5091994.599
10 0 59697  10182.000000  0   -3133813.047  -2370848.947   5647417.604
10 0 59697  10302.000000  0   -2665077.239  -1722420.273   6103503.501
10 0 59697  10422.000000  0   -2138277.048  -1052630.930   6452268.837
10 0 59697  10542.000000  0   -1562359.174   -374119.040   6687618.284
10 0 59697  10662.000000  0    -947338.836    300499.808   6805443.063
10 0 59697  10782.000000  0    -304125.451    958865.358   6803687.463
10 0 59697  10902.000000  0     355670.582   1589098.627   6682383.087
10 0 59697  11022.000000  0    1019947.093   2180016.265   6443648.525
10 0 59697  11142.000000  0    1676331.564   2721328.909   6091653.835
10 0 59697  11262.000000  0    2312410.645   3203820.959   5632552.585
10 0 59697  11382.000000  0    2915965.602   3619510.802   5074381.268
10 0 59697  11502.000000  0    3475210.149   3961787.474   4426923.888
10 0 59697  11622.000000  0    3979022.645   4225519.014   3701544.599
10 0 59697  11742.000000  0    4417171.853   4407135.160   2910993.985
10 0 59697  11862.000000  0    4780531.578   4504677.400   2069182.554
10 0 59697  11982.000000  0    5061272.767   4517816.732   1190933.489
10 0 59697  12102.000000  0    5253035.282   4447838.265    291716.027
10 0 59697  12222.000000  0    5351070.057   4297592.065   -612636.324
10 0 59697  12342.000000  0    5352347.859   4071411.708  -1506213.555
10 0 59697  12462.000000  0    5255634.262   3775003.281  -2373316.991
10 0 59697  12582.000000  0    5061528.316   3415307.136  -3198741.332
10 0 59697  12702.000000  0    4772464.246   3000337.775  -3968044.696
10 0 59697  12822.000000  0    4392676.696   2539005.627  -4667802.430
10 0 59697  12942.000000  0    3928130.612   2040923.439  -5285838.033
10 0 59697  13062.000000  0    3386419.111   1516204.568  -5811427.468
10 0 59697  13182.000000  0    2776631.636    975257.765  -6235475.810
10 0 59697  13302.000000  0    2109195.149    428582.006  -6550663.202
10 0 59697  13422.000000  0    1395693.596   -113433.875  -6751559.069
10 0 59697  13542.000000  0     648668.327   -640704.423  -6834707.435
10 0 59697  13662.000000  0    -118600.595  -1143631.177  -6798679.359
10 0 59697  13782.000000  0    -892324.632  -1613272.186  -6644093.349
10 0 59697  13902.000000  0   -1658448.244  -2041496.808  -6373606.906
10 0 59697  14022.000000  0   -2402898.696  -2421124.484  -5991875.705
10 0 59697  14142.000000  0   -3111838.921  -2746043.968  -5505481.630
10 0 59697  14262.000000  0   -3771922.223  -3011313.194  -4922831.565
10 0 59697  14382.000000  0   -4370545.413  -3213237.672  -4254023.525
10 0 59697  14502.000000  0   -4896093.022  -3349424.160  -3510681.782
10 0 59697  14622.000000  0   -5338169.139  -3418809.311  -2705763.506
10 0 59697  14742.000000  0   -5687811.355  -3421662.047  -1853337.927
10 0 59697  14862.000000  0   -5937680.503  -3359558.639   -968341.615
10 0 59697  14982.000000  0   -6082221.831  -3235331.023    -66314.521
10 0 59697  15102.000000  0   -6117792.854  -3052988.862    836878.233
10 0 59697  15222.000000  0   -6042754.268  -2817617.399   1725334.110
10 0 59697  15342.000000  0   -5857518.725  -2535252.367   2583403.369
10 0 59697  15462.000000  0   -5564558.044  -2212736.168   3395972.362
10 0 59697  15582.000000  0   -5168370.162  -1857559.693   4148737.603
10 0 59697  15702.000000  0   -4675402.675  -1477691.570   4828462.221
10 0 59697  15822.000000  0   -4093939.612  -1081401.991   5423208.112
10 0 59697  15942.000000  0   -3433955.012   -677085.204   5922543.661
10 0 59697  16062.000000  0   -2706934.119   -273082.665   6317723.983
10 0 59697  16182.000000  0   -1925665.618    122488.316   6601838.554
10 0 59697  16302.000000  0   -1104011.402    501895.392   6769924.845
10 0 59697  16422.000000  0    -256658.775    857940.465   6819049.584
10 0 59697  16542.000000  0     601142.070   1184095.180   6748356.408
10 0 59697  16662.000000  0    1453851.543   1474620.425   6559080.011
10 0 59697  16782.000000  0    2285921.378   1724667.696   6254525.593
10 0 59697  16902.000000  0    3082077.499   1930360.145   5840015.030
10 0 59697  17022.000000  0    3827602.586   2088853.092   5322799.880
10 0 59697  17142.000000  0    4508611.405   2198372.485   4711939.921
10 0 59697  17262.000000  0    5112314.392   2258231.847   4018151.412
10 0 59697  17382.000000  0    5627268.154   2268826.224   3253623.749
10 0 59697  17502.000000  0    6043600.729   2231601.459   2431803.813
10 0 59697  17622.000000  0    6353208.751   2149002.209   1567159.462
10 0 59697  17742.000000  0    6549923.719   2024397.797    674919.513
10 0 59697  17862.000000  0    6629639.280   1861987.689   -229201.982
10 0 59697  17982.000000  0    6590397.027   1666690.546  -1129292.015
10 0 59697  18102.000000  0    6432428.233   1444017.608  -2009526.474
10 0 59697  18222.000000  0    6158154.688   1199934.434  -2854455.319
10 0 59697  18342.000000  0    5772143.424    940714.977  -3649280.101
10 0 59697  18462.000000  0    5281018.960    672792.136  -4380115.177
10 0 59697  18582.000000  0    4693336.346    402608.300  -5034228.452
10 0 59697  18702.000000  0    4019419.888    136469.472  -5600256.513
10 0 59697  18822.000000  0    3271172.182   -119593.239  -6068393.045
10 0 59697  18942.000000  0    2461856.436   -359952.445  -6430548.960
10 0 59697  19062.000000  0    1605857.130   -579501.523  -6680479.882
10 0 59697  19182.000000  0     718425.703   -773757.727  -6813883.591
10 0 59697  19302.000000  0    -184588.584   -938949.437  -6828466.671
10 0 59697  19422.000000  0   -1087015.662  -1072086.137  -6723978.313
10 0 59697  19542.000000  0   -1972647.075  -1171011.141  -6502214.836
10 0 59697  19662.000000  0   -2825520.984  -1234435.740  -6166991.514
10 0 59697  19782.000000  0   -3630202.942  -1261954.617  -5724083.316
10 0 59697  19902.000000  0   -4372062.778  -1254042.808  -5181137.322
10 0 59697  20022.000000  0   -5037542.974  -1212033.357  -4547551.969
10 0 59697  20142.000000  0   -5614411.354  -1138076.264  -3834325.515
10 0 59697  20262.000000  0   -6091995.031  -1035079.241  -3053875.175
10 0 59697  20382.000000  0   -6461389.706   -906630.997  -2219827.369
10 0 59697  20502.000000  0   -6715638.056   -756908.493  -1346782.770
10 0 59697  20622.000000  0   -6849873.580   -590570.580   -450059.826
10 0 59697  20742.000000  0   -6861423.922   -412638.584    454579.840
10 0 59697  20862.000000  0   -6749869.938   -228368.472   1351215.119
10 0 59697  20982.000000  0   -6517061.019    -43118.386   2224054.322
10 0 59697  21102.000000  0   -6167083.868    137786.152   3057722.534
10 0 59697  21222.000000  0   -5706185.877    309185.779   3837540.757
10 0 59697  21342.000000  0   -5142655.025    466215.843   4549789.910
10 0 59697  21462.000000  0   -4486660.655    604426.383   5181954.382
10 0 59697  21582.000000  0   -3750059.777    719891.407   5722940.383
10 0 59697  21702.000000  0   -2946174.000    809304.615   6163267.654
10 0 59697  21822.000000  0   -2089540.775    870059.087   6495230.978
10 0 59697  21942.000000  0   -1195644.379    900310.829   6713029.661
10 0 59697  22062.000000  0    -280632.368    899024.061   6812861.878
10 0 59697  22182.000000  0     638976.117    865997.384   6792986.099
99
